$$SOE
2461302.500000000, A.D. 2026-Sep-19 00:00:00.0000, 2.072688707912177E+08, 1.564038308331230E+08, -9.400987210425365E+07,
2461309.500000000, A.D. 2026-Sep-26 00:00:00.0000, 1.981895666366822E+08, 1.646625471882380E+08, -9.722935807054129E+07,
2461316.500000000, A.D. 2026-Oct-03 00:00:00.0000, 1.886497443513077E+08, 1.725385916966989E+08, -1.002228934033424E+08,
2461323.500000000, A.D. 2026-Oct-10 00:00:00.0000, 1.786677011920801E+08, 1.800101180770564E+08, -1.029814637114359E+08,
2461330.500000000, A.D. 2026-Oct-17 00:00:00.0000, 1.682628772571819E+08, 1.870556162564020E+08, -1.054963173733177E+08,
2461337.500000000, A.D. 2026-Oct-24 00:00:00.0000, 1.574558849015138E+08, 1.936539505047142E+08, -1.077589866404960E+08,
2461344.500000000, A.D. 2026-Oct-31 00:00:00.0000, 1.462685386282932E+08, 1.997844023495463E+08, -1.097613112166228E+08,
2461351.500000000, A.D. 2026-Nov-07 00:00:00.0000, 1.347238853523627E+08, 2.054267187187087E+08, -1.114954644857894E+08,
2461358.500000000, A.D. 2026-Nov-14 00:00:00.0000, 1.228462347289517E+08, 2.105611665666233E+08, -1.129539824689802E+08,
2461365.500000000, A.D. 2026-Nov-21 00:00:00.0000, 1.106611871439824E+08, 2.151685950216914E+08, -1.141297953877292E+08,
2461372.500000000, A.D. 2026-Nov-28 00:00:00.0000, 9.819565766697337E+07, 2.192305024165339E+08, -1.150162620738664E+08,
2461379.500000000, A.D. 2026-Dec-05 00:00:00.0000, 8.547789881077714E+07, 2.227291079234970E+08, -1.156072077222123E+08,
2461386.500000000, A.D. 2026-Dec-12 00:00:00.0000, 7.253752141036840E+07, 2.256474312296141E+08, -1.158969648421539E+08,
2461393.500000000, A.D. 2026-Dec-19 00:00:00.0000, 5.940551077272472E+07, 2.279693805224429E+08, -1.158804172883104E+08,
2461400.500000000, A.D. 2026-Dec-26 00:00:00.0000, 4.611423688875297E+07, 2.296798481222551E+08, -1.155530474422828E+08,
2461407.500000000, A.D. 2027-Jan-02 00:00:00.0000, 3.269745780742519E+07, 2.307648136924292E+08, -1.149109865492225E+08,
2461414.500000000, A.D. 2027-Jan-09 00:00:00.0000, 1.919031500149790E+07, 2.312114550715103E+08, -1.139510681202736E+08,
2461421.500000000, A.D. 2027-Jan-16 00:00:00.0000, 5.629319363636672E+06, 2.310082666379133E+08, -1.126708842356269E+08,
2461428.500000000, A.D. 2027-Jan-23 00:00:00.0000, -7.947673619142408E+06, 2.301451849234236E+08, -1.110688445071198E+08,
2461435.500000000, A.D. 2027-Jan-30 00:00:00.0000, -2.150150091324917E+07, 2.286137210094004E+08, -1.091442373798974E+08,
2461442.500000000, A.D. 2027-Feb-06 00:00:00.0000, -3.499174244635075E+07, 2.264070994248448E+08, -1.068972933381112E+08,
2461449.500000000, A.D. 2027-Feb-13 00:00:00.0000, -4.837678724716754E+07, 2.235204039162557E+08, -1.043292493150970E+08,
2461456.500000000, A.D. 2027-Feb-20 00:00:00.0000, -6.161391929514654E+07, 2.199507281853301E+08, -1.014424134689486E+08,
2461463.500000000, A.D. 2027-Feb-27 00:00:00.0000, -7.465942337286907E+07, 2.156973269562065E+08, -9.824022986105664E+07,
2461470.500000000, A.D. 2027-Mar-06 00:00:00.0000, -8.746870954695255E+07, 2.107617675597902E+08, -9.472734217023188E+07,
2461477.500000000, A.D. 2027-Mar-13 00:00:00.0000, -9.999645936781408E+07, 2.051480820302526E+08, -9.090965501315638E+07,
2461484.500000000, A.D. 2027-Mar-20 00:00:00.0000, -1.121967961873281E+08, 1.988629164595796E+08, -8.679439154805753E+07,
2461491.500000000, A.D. 2027-Mar-27 00:00:00.0000, -1.240234803853626E+08, 1.919156742803042E+08, -8.239014598357478E+07,
2461498.500000000, A.D. 2027-Apr-03 00:00:00.0000, -1.354301299250588E+08, 1.843186503044383E+08, -7.770692944251847E+07,
2461505.500000000, A.D. 2027-Apr-10 00:00:00.0000, -1.463704663319176E+08, 1.760871520988987E+08, -7.275620749813828E+07,
2461512.500000000, A.D. 2027-Apr-17 00:00:00.0000, -1.567985856697965E+08, 1.672396049655685E+08, -6.755092761519973E+07,
2461519.500000000, A.D. 2027-Apr-24 00:00:00.0000, -1.666692533764201E+08, 1.577976365371472E+08, -6.210553469225925E+07,
2461526.500000000, A.D. 2027-May-01 00:00:00.0000, -1.759382208623868E+08, 1.477861369690075E+08, -5.643597291951135E+07,
2461533.500000000, A.D. 2027-May-08 00:00:00.0000, -1.845625609619426E+08, 1.372332914175606E+08, -5.055967217411300E+07,
2461540.500000000, A.D. 2027-May-15 00:00:00.0000, -1.925010202779597E+08, 1.261705818254779E+08, -4.449551713166035E+07,
2461547.500000000, A.D. 2027-May-22 00:00:00.0000, -1.997143856666499E+08, 1.146327517823020E+08, -3.826379777764086E+07,
2461554.500000000, A.D. 2027-May-29 00:00:00.0000, -2.061658563061221E+08, 1.026577298150481E+08, -3.188614064527456E+07,
2461561.500000000, A.D. 2027-Jun-05 00:00:00.0000, -2.118214144381640E+08, 9.028651165196054E+07, -2.538541985687574E+07,
2461568.500000000, A.D. 2027-Jun-12 00:00:00.0000, -2.166501901146302E+08, 7.756300009729932E+07, -1.878564747703660E+07,
2461575.500000000, A.D. 2027-Jun-19 00:00:00.0000, -2.206248130703823E+08, 6.453380079697330E+07, -1.211184348023774E+07,
2461582.500000000, A.D. 2027-Jun-26 00:00:00.0000, -2.237217438668781E+08, 5.124797395480507E+07, -5.389886189251358E+06,
2461589.500000000, A.D. 2027-Jul-03 00:00:00.0000, -2.259215764957884E+08, 3.775674353055173E+07, 1.353655398323242E+06,
2461596.500000000, A.D. 2027-Jul-10 00:00:00.0000, -2.272093049069673E+08, 2.411316672558552E+07, 8.091705379473772E+06,
2461603.500000000, A.D. 2027-Jul-17 00:00:00.0000, -2.275745463965425E+08, 1.037176779581306E+07, 1.479687820954816E+07,
2461610.500000000, A.D. 2027-Jul-24 00:00:00.0000, -2.270117154378890E+08, -3.411858570010887E+06, 2.144168631924038E+07,
2461617.500000000, A.D. 2027-Jul-31 00:00:00.0000, -2.255201423321988E+08, -1.718146767030556E+07, 2.799875450219654E+07,
2461624.500000000, A.D. 2027-Aug-07 00:00:00.0000, -2.231041329644471E+08, -3.088060054204182E+07, 3.444103728949791E+07,
2461631.500000000, A.D. 2027-Aug-14 00:00:00.0000, -2.197729695508983E+08, -4.445302731022718E+07, 4.074203540538172E+07,
2461638.500000000, A.D. 2027-Aug-21 00:00:00.0000, -2.155408509936880E+08, -5.784319312567692E+07, 4.687600683004028E+07,
2461645.500000000, A.D. 2027-Aug-28 00:00:00.0000, -2.104267703467619E+08, -7.099665702100274E+07, 5.281816822682270E+07,
2461652.500000000, A.D. 2027-Sep-04 00:00:00.0000, -2.044543331522701E+08, -8.386051292589766E+07, 5.854488328103563E+07,
2461659.500000000, A.D. 2027-Sep-11 00:00:00.0000, -1.976515221566007E+08, -9.638378578431779E+07, 6.403383464479176E+07,
2461666.500000000, A.D. 2027-Sep-18 00:00:00.0000, -1.900504137943316E+08, -1.085177965260577E+08, 6.926417656268595E+07,
2461673.500000000, A.D. 2027-Sep-25 00:00:00.0000, -1.816868528938504E+08, -1.202164900710593E+08, 7.421666589912331E+07,
2461680.500000000, A.D. 2027-Oct-02 00:00:00.0000, -1.726000930340575E+08, -1.314367216149406E+08, 7.887376992863633E+07,
2461687.500000000, A.D. 2027-Oct-09 00:00:00.0000, -1.628324105498710E+08, -1.421384978347832E+08, 8.321974989280213E+07,
2461694.500000000, A.D. 2027-Oct-16 00:00:00.0000, -1.524287003865908E+08, -1.522851711384712E+08, 8.724072002115050E+07,
2461701.500000000, A.D. 2027-Oct-23 00:00:00.0000, -1.414360617689978E+08, -1.618435863872448E+08, 9.092468241305885E+07,
2461708.500000000, A.D. 2027-Oct-30 00:00:00.0000, -1.299033812046397E+08, -1.707841801096478E+08, 9.426153883332752E+07,
2461715.500000000, A.D. 2027-Nov-06 00:00:00.0000, -1.178809212823173E+08, -1.790810327781147E+08, 9.724308112978739E+07,
2461722.500000000, A.D. 2027-Nov-13 00:00:00.0000, -1.054199237577347E+08, -1.867118788697325E+08, 9.986296215568452E+07,
2461729.500000000, A.D. 2027-Nov-20 00:00:00.0000, -9.257222962051888E+07, -1.936580803301912E+08, 1.021166489053731E+08,
2461736.500000000, A.D. 2027-Nov-27 00:00:00.0000, -7.938991914325359E+07, -1.999045644954231E+08, 1.040013603077510E+08,
2461743.500000000, A.D. 2027-Dec-04 00:00:00.0000, -6.592497754742465E+07, -2.054397299551369E+08, 1.055159923857008E+08,
2461750.500000000, A.D. 2027-Dec-11 00:00:00.0000, -5.222898945746241E+07, -2.102553259166849E+08, 1.066610332094959E+08,
2461757.500000000, A.D. 2027-Dec-18 00:00:00.0000, -3.835286354976758E+07, -2.143463100369678E+08, 1.074384699796211E+08,
2461764.500000000, A.D. 2027-Dec-25 00:00:00.0000, -2.434658806426555E+07, -2.177106892490768E+08, 1.078516904861279E+08,
2461771.500000000, A.D. 2028-Jan-01 00:00:00.0000, -1.025901719437434E+07, -2.203493478757466E+08, 1.079053810357191E+08,
$$EOE